FENGYUN 1C DEB          
1 31964U 99025CNR 17345.11878077  .00000740  00000-0  32128-3 0  9997
2 31964  98.7860  45.5905 0046367   2.9708 357.1739 14.26649260544337
